QIANFAN-73              
1 63159U 25046A   25222.54678325  .00000151  00000+0  21481-3 0  9999
2 63159  88.9864 332.8246 0016900 121.1723 239.1088 13.50960777 30649
QIANFAN-74              
1 63160U 25046B   25222.23407369  .00000170  00000+0  24533-3 0  9997
2 63160  88.9863 332.7452 0001962 105.2697 254.8671 13.50965547 30667
QIANFAN-75              
1 63161U 25046C   25222.22177666  .00000164  00000+0  23458-3 0  9999
2 63161  88.9864 332.9782 0018028 124.9691 235.3157 13.50961772 30535
QIANFAN-76              
1 63162U 25046D   25222.51377290  .00000163  00000+0  23409-3 0  9992
2 63162  88.9864 332.9295 0015599 124.5186 235.7440 13.50958191 30585
QIANFAN-77              
1 63163U 25046E   25222.18674036  .00000374  00000+0  26261-3 0  9997
2 63163  88.9861 331.9913 0016977 108.8911 251.4108 13.96011599 31074
QIANFAN-78              
1 63164U 25046F   25222.55503810  .00000170  00000+0  24384-3 0  9998
2 63164  88.9863 332.7907 0016952 126.6754 233.5958 13.50961435 30666
QIANFAN-79              
1 63165U 25046G   25222.21341741  .00000163  00000+0  23290-3 0  9992
2 63165  88.9867 332.9283 0016631 126.0103 234.2592 13.50963541 30578
QIANFAN-80              
1 63166U 25046H   25222.52625045  .00000172  00000+0  24716-3 0  9993
2 63166  88.9864 332.6066 0015594 128.8521 231.4025 13.50963767 30764
